1 25482U 98053H   19273.63554860 +.00000013 +00000-0 +54999-4 0  9999
2 25482 045.0093 325.2441 0004559 294.1627 065.8743 14.33578397098829
1 25482U 98053H   19274.05367793  .00000012  00000-0  54597-4 0  9996
2 25482  45.0093 323.2761 0004558 295.9125  64.1252 14.33578499 98935
1 25482U 98053H   19274.61118369 +.00000005 +00000-0 +52212-4 0  9995
2 25482 045.0092 320.6521 0004541 298.2125 061.8262 14.33578609098968
1 25482U 98053H   19275.09900115  .00000005  00000-0  52081-4 0  9990
2 25482  45.0091 318.3561 0004542 300.2297  59.8099 14.33578719 99081
1 25482U 98053H   19275.58681859 +.00000007 +00000-0 +52927-4 0  9996
2 25482 045.0090 316.0601 0004519 302.2736 057.7672 14.33578864099102
1 25482U 98053H   19276.35338868  .00000016  00000-0  56162-4 0  9996
2 25482  45.0089 312.4521 0004501 305.4553  54.5873 14.33579132 99268
1 25482U 98053H   19276.56245326 +.00000022 +00000-0 +58282-4 0  9997
2 25482 045.0089 311.4681 0004495 306.4469 053.5963 14.33579225099243
1 25482U 98053H   19277.46839956  .00000039  00000-0  64544-4 0  9991
2 25482  45.0087 307.2041 0004476 310.3915  49.6540 14.33579618 99426
1 25482U 98053H   19277.60777589 +.00000038 +00000-0 +64129-4 0  9998
2 25482 045.0087 306.5481 0004472 310.9968 049.0491 14.33579673099392
1 25482U 98053H   19278.58341004  .00000060  00000-0  71962-4 0  9993
2 25482  45.0085 301.9559 0004435 315.2025  44.8463 14.33580192 99587
1 25482U 98053H   19279.55904402 +.00000068 +00000-0 +74858-4 0  9993
2 25482 045.0084 297.3638 0004399 319.4693 040.5825 14.33580645099676
1 25482U 98053H   19280.04686088  .00000070  00000-0  75643-4 0  9992
2 25482  45.0084 295.0676 0004385 321.5902  38.4632 14.33580864 99793
1 25482U 98053H   19280.53467774 +.00000073 +00000-0 +76409-4 0  9999
2 25482 045.0083 292.7716 0004365 323.8514 036.2037 14.33581084099816
1 25482U 98053H   19281.16187067  .00000074  00000-0  76827-4 0  9998
2 25482  45.0083 289.8194 0004335 326.6051  33.4522 14.33581356 99952
1 25482U 98053H   19281.51031117 +.00000076 +00000-0 +77560-4 0  9998
2 25482 045.0083 288.1794 0004317 328.1773 031.8813 14.33581495099957
1 25482U 98053H   19282.41625639  .00000065  00000-0  73641-4 0  9990
2 25482  45.0082 283.9153 0004270 332.3377  27.7242 14.33581759100139
1 25482U 98053H   19282.48594445 +.00000065 +00000-0 +73878-4 0  9999
2 25482 045.0082 283.5873 0004268 332.6666 027.3956 14.33581795100098
1 25482U 98053H   19283.46157760  .00000050  00000-0  68425-4 0  9999
2 25482  45.0082 278.9951 0004223 337.2993  22.7666 14.33582020100288
1 25482U 98053H   19284.92502675 +.00000043 +00000-0 +65691-4 0  9994
2 25482 045.0081 272.1069 0004140 344.1737 015.8979 14.33582499100442
